Supermarket,Latitude,Longitude,Suburb,Postcode,Address
IGA,-37.2773622,144.7338613,No Suburb,No Postcode,
Coles,-37.7914336,145.1718422,No Suburb,No Postcode,55 Tunstall Square
Foodworks,-37.7889872,144.9760904,No Suburb,No Postcode,799 Nicholson Street
Coles,-37.8547864,145.1826504,No Suburb,No Postcode,495-511 Burwood Highway
Coles,-37.8682575,145.240404,No Suburb,No Postcode,
Coles,-37.83496,145.1643348,No Suburb,No Postcode,
Woolworths,-37.8358294,145.1644531,No Suburb,No Postcode,
Coles,-38.3614651,144.8921554,No Suburb,No Postcode,
Coles,-37.794199,145.2791738,Croydon,3136,5-15 Kent Avenue
IGA,-36.7508127,145.5710032,Euroa,3666,75 Binney Street
Coles,-37.9208945,145.2375525,No Suburb,No Postcode,1101 Stud Road
Coles,-37.8855399,145.0845484,No Suburb,No Postcode,
Woolworths,-37.887188,145.0842821,No Suburb,No Postcode,1341 Dandenong Road
ALDI,-37.8863767,145.0839366,No Suburb,No Postcode,1341 Dandenong Road
Coles,-37.8747789,144.6794291,No Suburb,No Postcode,250 Heaths Road
Woolworths,-37.7981407,144.9683576,No Suburb,No Postcode,
Coles,-37.8535375,145.1487011,No Suburb,No Postcode,172-210 Burwood Highway
Maxi Foods,-37.8943767,145.3080703,No Suburb,No Postcode,1202 Burwood Highway
Coles,-37.949435,145.0033564,No Suburb,No Postcode,10-20 Waltham Street
Woolworths,-37.8747173,145.1648652,No Suburb,No Postcode,
Coles,-37.8768747,145.1645918,No Suburb,No Postcode,227-235 Springvale Road
Woolworths,-37.8229337,145.3020376,Bayswater North,3153,17-39 Canterbury Road
Woolworths,-37.803235,145.3108152,Kilysth,3137,534-542 Mount Dandenong Road
Woolworths,-37.9097755,145.1898734,No Suburb,No Postcode,
Coles,-37.6856825,144.5657612,No Suburb,No Postcode,533-555 High Street
Woolworths,-37.6855804,144.5669149,No Suburb,No Postcode,
Psarakos Market,-37.7597746,145.0007011,No Suburb,No Postcode,
Coles,-37.8612829,145.2875436,No Suburb,No Postcode,
Woolworths,-37.7601449,145.3494123,No Suburb,No Postcode,
Woolworths,-37.8784183,145.1276618,No Suburb,No Postcode,
Ritchie's IGA,-37.8763513,145.1285091,No Suburb,No Postcode,
Coles,-38.0778107,145.4790259,No Suburb,No Postcode,67-69 Main Street
Ritchies,-38.0791372,145.4828066,No Suburb,No Postcode,
Woolworths,-38.0816497,145.2782581,No Suburb,No Postcode,
Coles,-38.0857063,145.4709464,No Suburb,No Postcode,
Coles,-38.115432,145.1930495,No Suburb,No Postcode,335 Ballarto Road
Woolworths,-38.140202,145.126413,Frankston,No Postcode,
Coles,-38.1421829,145.1234117,No Suburb,No Postcode,
Woolworths,-37.9834708,145.1329898,Dingley Village,No Postcode,89 Centre Dandenong Road
ALDI,-37.9590509,145.0548965,No Suburb,No Postcode,1239 Nepean Highway
Coles,-37.9589132,145.0512356,No Suburb,No Postcode,
Coles,-38.2193814,145.0401252,No Suburb,No Postcode,78 Barkly Street
Woolworths,-38.1838062,145.0898802,No Suburb,No Postcode,
Woolworths,-38.2244567,145.1715701,No Suburb,No Postcode,
Coles,-38.2240036,145.1703702,No Suburb,No Postcode,49 Eramosa Road West
Coles,-37.9828511,145.2136939,No Suburb,No Postcode,
North Melbourne IGA X-press,-37.798856,144.953525,No Suburb,No Postcode,75 Flemington Road
Ritchies IGA,-38.1122489,145.1566421,No Suburb,No Postcode,280 Seaford Road
IGA,-38.6059357,145.5890138,No Suburb,No Postcode,
ALDI,-38.6042866,145.5926656,No Suburb,No Postcode,
Woolworths,-37.9929941,145.172621,No Suburb,No Postcode,
Coles,-37.9922837,145.1719538,No Suburb,No Postcode,
Coles,-37.8254909,144.9947938,No Suburb,No Postcode,150 Swan Street
IGA,-37.8821985,145.2944036,No Suburb,No Postcode,107 Station Street
Woolworths,-37.8845285,145.0587077,No Suburb,No Postcode,
Dargo General Store,-37.4614389,147.2508422,No Suburb,No Postcode,
Coles,-37.8952497,144.7530363,No Suburb,No Postcode,300 Point Cook Road
Coles,-37.7869266,145.1257942,No Suburb,No Postcode,619 Doncaster Road
Woolworths,-37.7869012,145.1264487,No Suburb,No Postcode,
Woolworths,-37.8628805,145.0271098,No Suburb,No Postcode,
Woolworths,-37.7070041,144.9387874,No Suburb,No Postcode,
Coles,-38.0686164,145.3007558,No Suburb,No Postcode,400 Cranbourne Road
IGA,-37.029562,145.1463322,No Suburb,No Postcode,
Woolworths,-38.3138184,146.4201968,No Suburb,No Postcode,
Richies IGA Churchill,-38.3121751,146.4210208,No Suburb,No Postcode,
Coles,-37.6508313,145.0687423,No Suburb,No Postcode,
Woolworths,-37.6520545,145.0741496,No Suburb,No Postcode,
Woolworths,-36.3882462,145.4245579,No Suburb,No Postcode,
Woolworths,-37.8205606,144.9436054,No Suburb,No Postcode,
ALDI,-37.7930599,144.8607906,No Suburb,No Postcode,67 Ashley Street
Coles,-37.7936568,144.8603614,No Suburb,No Postcode,67 Ashley Street
Coles,-38.1620606,145.9324454,No Suburb,No Postcode,30-36 Palmerston Street
Woolworths,-38.1600589,145.9306082,No Suburb,No Postcode,
Coles,-37.7151557,145.1486437,No Suburb,No Postcode,
Aldi,-37.7128407,145.1501999,No Suburb,No Postcode,6-20 Luck Street
Foodworks,-37.8779529,147.9944713,No Suburb,No Postcode,
IGA,-37.7126927,145.0925869,No Suburb,No Postcode,
Coles,-37.70242,145.1028078,No Suburb,No Postcode,
IGA,-37.0520648,146.0901564,Mansfield,3722,47 High Street
Coles,-37.7971249,145.2569815,Croydon,3136,434 Maroondah Highway
Coles,-37.4133779,144.9783977,No Suburb,No Postcode,69-79 High Street
Woolworths,-37.4113849,144.9784229,No Suburb,No Postcode,
Coles,-37.8155086,145.2212725,Ringwood,3134,59 Maroondah Highway
ALDI,-37.815856,145.2231415,Ringwood,3134,
Coles,-37.682907,145.0704091,No Suburb,No Postcode,5 Janefield Drive
Woolworths,-37.8481054,145.0052368,No Suburb,No Postcode,
Woolworths Metro,-37.8591642,144.9777767,No Suburb,No Postcode,
Woolworths,-37.8685209,144.978811,No Suburb,No Postcode,117 Acland Street
Coles,-37.8685845,144.9806027,No Suburb,No Postcode,181-189 Barkly Street
McCoppins Food & Wine,-37.7888604,144.9895506,No Suburb,No Postcode,292-294 Queens Parade
Unnamed Supermarket,-37.9705899,145.0687847,No Suburb,No Postcode,
KimChi Korean Japanese Grocery,-37.802712,144.977554,No Suburb,No Postcode,161-163 Brunswick Street
Coles,-37.8915244,145.14381,No Suburb,No Postcode,30-42 Centreway
Coles,-37.8175611,144.9649673,No Suburb,No Postcode,276 Flinders Street
Woolworths,-37.9009686,145.0910073,No Suburb,No Postcode,39 Hanover Street
IGA X-press + Liquor,-37.825805,144.957017,Southbank,3006,46 Whiteman Street
IGA,-37.8164808,144.961159,No Suburb,No Postcode,
Woolworths,-38.3453039,141.6032498,No Suburb,No Postcode,
Ballan IGA,-37.6003522,144.2249599,No Suburb,No Postcode,
IGA Port Fairy,-38.3846768,142.2366779,No Suburb,No Postcode,
Barwon Heads General Store,-38.2805875,144.4916934,No Suburb,No Postcode,
Venus Bay General Store,-38.7020259,145.8204444,No Suburb,No Postcode,
Woolworths,-37.699412,144.7778007,No Suburb,No Postcode,
ALDI,-37.699312,144.7785142,No Suburb,No Postcode,
IGA,-36.3583955,146.3165864,Wangaratta,3677,1-5 Roy Street East
Aldi,-36.3563765,146.327161,Wangaratta,3677,13-15 Chisholm Street
Coles,-36.3599515,146.3172286,No Suburb,No Postcode,2-18 Ryley Street
Woolworths,-37.811152,144.965377,No Suburb,No Postcode,
Coles,-37.9865785,145.2183528,No Suburb,No Postcode,23-55 McCrae Street
About Life,-37.84107,144.940275,Port Melboune,3207,120 Bay Street
IGA,-38.3730163,145.1249803,No Suburb,No Postcode,
Port Melbourne IGA,-37.8418505,144.9395728,Port Melbourne,3207,78 Bay Street
Woolworths,-37.8880208,144.6072287,No Suburb,No Postcode,
IGA,-37.8593771,145.2408419,No Suburb,No Postcode,
Woolworths,-38.0295132,145.3468395,No Suburb,No Postcode,
Coles,-37.7272917,144.895358,Essendon Fields,3041,30 English Street
ALDI,-38.017448,145.3010818,No Suburb,No Postcode,
Sika Supermarket,-37.8044181,144.9772684,No Suburb,No Postcode,105 Brunswick Street
Woolworths,-37.7818758,145.6127209,No Suburb,No Postcode,
Woolworths,-37.5336188,143.8252408,No Suburb,No Postcode,
Coles,-37.5349147,143.8242493,No Suburb,No Postcode,330 Gillies Street North
Coles,-37.6524334,145.5181925,No Suburb,No Postcode,251 Maroondah Highway
Woolworths,-37.7871515,144.92789,No Suburb,No Postcode,
Woolworths,-37.9403963,145.1037428,No Suburb,No Postcode,
Woolworths,-37.7758181,144.9618499,No Suburb,No Postcode,
Coles,-37.7758523,144.9626265,No Suburb,No Postcode,
Coles,-37.8147983,144.9518038,Melbourne,3000,201 Spencer Street
Coles,-37.7691345,145.0013383,No Suburb,No Postcode,25 Separation Street
ALDI,-37.768958,145.000045,No Suburb,No Postcode,
Casa Iberica,-37.7979262,144.9759075,No Suburb,No Postcode,25 Johnston Street
Foodworks,-38.098398,145.7181796,No Suburb,No Postcode,
ALDI,-38.3798844,142.4789514,No Suburb,No Postcode,251-257 Lava Street
Port Campbell Store,-38.6198568,142.9944635,No Suburb,No Postcode,
Ritchie's IGA,-38.484612,142.9806646,No Suburb,3628,27 Main Street
Woolworths,-38.2453496,145.0480895,No Suburb,No Postcode,
Woolworths,-37.8577633,144.8825866,Williamstown,3016,71 Kororoit Creek Road
Unnamed Supermarket,-37.3562427,144.5287703,No Suburb,No Postcode,
Terang Supa IGA,-38.2409286,142.9181945,No Suburb,No Postcode,
IGA,-37.7777999,144.7559358,Deer Park,3023,8 Hatchlands Drive
IGA,-36.4532177,142.0270287,No Suburb,No Postcode,
IGA,-38.6528053,146.201801,No Suburb,No Postcode,
Foodworks,-37.805942,144.98017,Fitzroy,3065,169 Gertrude Street
IGA,-37.809886,144.971151,No Suburb,No Postcode,
Woolworths Metro,-37.810488,144.97004,No Suburb,No Postcode,222 Exhibition Street
Woolworths,-37.8753514,145.408825,No Suburb,No Postcode,
Woolworths,-38.2581576,144.5488679,No Suburb,No Postcode,
Coles,-37.913326,144.9927645,Brighton,No Postcode,26 Church Street
Country Grocers & Liquor,-37.3885146,144.3213683,No Suburb,No Postcode,
Coles,-38.0140108,145.3222251,No Suburb,No Postcode,215-225 Parkhill Drive
ALDI,-37.650551,145.0691768,No Suburb,No Postcode,
Woolworths,-37.0466004,143.7408384,No Suburb,No Postcode,
Woolworths,-37.7729494,145.1136659,No Suburb,No Postcode,
Foodworks,-37.80314,144.9490587,No Suburb,No Postcode,
Chelsea Heights IGA,-38.0451707,145.1362888,Chelsea Heights,3196,199 Thames Promenade
IGA,-37.8198464,145.009407,No Suburb,3121,516 Bridge Road
Ritchies,-37.0560719,142.7814962,No Suburb,No Postcode,
Morgan's IGA,-37.6838522,144.5826013,No Suburb,No Postcode,
Foodworks,-37.6841682,144.5785968,No Suburb,No Postcode,
FoodWorks,-38.5351816,143.9739247,No Suburb,No Postcode,
Coles,-37.8815939,144.7032684,No Suburb,No Postcode,50 Old Geelong Road
ALDI,-37.809602,144.9954593,No Suburb,No Postcode,313-325 Victoria Street
Coles,-37.8576259,144.8974163,No Suburb,No Postcode,29 Douglas Parade
Coles,-37.7652693,145.0918512,No Suburb,No Postcode,101 Manningham Road
Woolworths,-37.656882,145.0816743,No Suburb,No Postcode,
Minh Phat Asian Supermarket,-37.8095858,144.9963729,No Suburb,No Postcode,2-8 Nicholson Street
Supa IGA,-37.6018732,143.8679295,No Suburb,No Postcode,
Lucky 7,-37.5811826,144.7145268,No Suburb,No Postcode,
Woolworths,-37.8992104,144.662848,No Suburb,No Postcode,
Woolworths,-38.1370122,144.3477524,No Suburb,No Postcode,
Woolworths,-37.6875423,144.8849079,Gladstone Park,3043,34 Gladstone Park Drive
IGA,-37.5821232,144.7288356,No Suburb,No Postcode,
Woolworths,-37.7577207,145.3136509,Chirnside Park,3116,239-241 Maroondah Highway
Woolworths,-37.8120412,145.2284585,Ringwood,3134,171-175 Maroondah Highway
Woolworths,-34.2067856,142.1386338,No Suburb,No Postcode,
Coles,-37.6543378,145.0188275,No Suburb,No Postcode,571-583 High Street
Coles,-37.8679128,144.9919849,No Suburb,No Postcode,54 Camden Street
Woolworths,-37.868243,144.991277,No Suburb,No Postcode,220 Carlisle Street
Coles,-37.7673811,145.0017674,No Suburb,No Postcode,25 Separation Street
Woolworths,-37.935591,145.1885926,No Suburb,No Postcode,
ALDI,-37.9366727,145.1915257,No Suburb,No Postcode,271 Police Road
Coles,-37.9357915,145.1905999,No Suburb,No Postcode,271 Police Road
Coles,-37.8458418,145.0452563,No Suburb,No Postcode,766 Toorak Road
ALDI,-37.8074444,144.9621938,No Suburb,No Postcode,8 Franklin Street
IGA,-37.8078326,144.9609707,No Suburb,No Postcode,
Woolworths,-37.8096773,144.9954578,No Suburb,No Postcode,
Aldi,-38.0627199,145.3395845,No Suburb,No Postcode,
Coles,-38.061441,145.3397959,No Suburb,No Postcode,95 O'Shea Road
Black Rock Grocer,-37.9748874,145.0161043,No Suburb,No Postcode,
Coles,-37.8425504,145.2667021,No Suburb,No Postcode,7-13 High Street
French's IGA X-Press,-37.8759542,145.1779801,No Suburb,No Postcode,
IGA,-37.8097374,144.98563,No Suburb,No Postcode,
ALDI,-38.1397884,145.1260897,Frankston,No Postcode,28 Beach Street
IGA,-37.8765871,144.9965585,No Suburb,No Postcode,
Coles,-38.1071313,145.2818531,No Suburb,No Postcode,
Hinoki Japanese Pantry,-37.8005727,144.983832,No Suburb,No Postcode,279 Smith Street
Organic Wholefoods,-37.800652,144.983823,No Suburb,No Postcode,277 Smith Street
Foodworks,-37.7998871,144.9922356,No Suburb,No Postcode,
Foodworks,-37.7943152,144.9298631,No Suburb,No Postcode,484 Macaulay Road
Coles,-37.7645234,144.9219203,No Suburb,No Postcode,20 Homer Street
The Source Bulk Foods,-37.8028064,144.9837684,No Suburb,No Postcode,202 Smith Street
Woolworths,-37.7701721,145.0416219,No Suburb,No Postcode,
Poowong IGA X-Press,-38.3426959,145.7663866,Poowong,No Postcode,Ranceby Road
Coles,-37.9048141,145.1622732,No Suburb,No Postcode,
ALDI,-37.9057667,145.1627595,No Suburb,No Postcode,
Unnamed Supermarket,-37.463399,144.6778788,No Suburb,No Postcode,
Ritchies,-38.3339803,144.9649093,No Suburb,No Postcode,
Leo's Fine Food & Wine,-37.8488155,145.0766461,No Suburb,No Postcode,1 Summerhill Road
Coles,-38.1069769,147.0644793,No Suburb,No Postcode,37-79 Cunninghame Street
Woolworths,-38.2368061,146.4294341,No Suburb,No Postcode,
Coles,-38.1939842,146.5398932,No Suburb,No Postcode,146-188 Franklin Street
Coles,-37.7149789,144.88468,No Suburb,No Postcode,29-35 Louis Street
Woolworths,-37.7146375,144.887236,No Suburb,No Postcode,
Woolworths,-38.032744,145.2663806,No Suburb,No Postcode,
Major's IGA Supermarket,-36.3610449,144.7006896,No Suburb,No Postcode,
IGA,-37.9036986,145.0407706,Ormond,3204,1 Newhome Grove
Ritchies IGA,-38.0887498,145.1823156,No Suburb,No Postcode,
IGA,-37.6875728,145.1083326,No Suburb,3088,
IGA,-37.74352,145.0646217,No Suburb,3084,90 Lower Plenty Road
Woolworths,-37.7803951,144.8319234,No Suburb,No Postcode,
Foodworks,-37.9359738,145.492205,Cockatoo,3781,34 McBride Street
Coles,-38.3515418,144.9227978,No Suburb,No Postcode,739 Point Nepean Road
Coles,-37.8757512,144.6145175,No Suburb,No Postcode,8 Manor Lakes Boulevard
Coles,-38.267528,144.5238339,No Suburb,No Postcode,77-79 The Terrace
Coles,-37.7518375,144.7756103,No Suburb,No Postcode,28-72 Neale Road
Woolworths,-37.7508329,144.7734061,No Suburb,No Postcode,
Coles,-37.7323759,144.7425236,Caroline Springs,3023,29-35 Lake Street
ALDI,-37.7315698,144.7427972,Caroline Springs,3023,29-35 Lake Street
Coles,-37.901233,145.0903717,No Suburb,No Postcode,39 Hanover Street
Coles,-37.6749254,145.0357476,No Suburb,No Postcode,22 McKimmies Road
Foodworks,-37.0360187,141.2976276,No Suburb,No Postcode,
Wycheproof IGA and Liquor,-36.0762727,143.2259081,Wycheproof,3527,316 Broadway
Woolworths,-35.3376469,143.5580244,No Suburb,No Postcode,
ALDI,-35.3420975,143.5608276,No Suburb,No Postcode,
IGA X-press,-37.7686793,144.97235,No Suburb,3057,326-328 Lygon Street
ALDI,-37.7028795,145.1033101,No Suburb,No Postcode,25 Main Street
McPherson General Store,-36.076008,142.4153186,No Suburb,No Postcode,
Coles,-38.1030621,145.2652502,No Suburb,No Postcode,95 Monahans Road
Woolworths,-38.0744592,144.3574169,No Suburb,No Postcode,
Coles,-38.0759456,144.3556949,Corio,3214,83A Purnell Road
IGA Neerim South Plus Liquor,-38.0162591,145.9541018,No Suburb,3831,"147-155 Main Neerim Road, Neerim South"
Coles,-37.6751442,144.4402008,No Suburb,No Postcode,176 Main Street
La Manna Supermarket,-37.7262703,144.8937304,No Suburb,No Postcode,
IGA Trafalgar,-38.2084944,146.153376,Trafalgar,3824,McCrorey Street
Coles,-37.5781965,144.7293169,No Suburb,No Postcode,2-28 Evans Street
IGA,-37.9864651,145.0334661,No Suburb,No Postcode,
Foodworks,-37.8067458,144.8913566,Seddon,3011,85-87 Charles Street
Coles,-36.1283141,146.8641891,No Suburb,No Postcode,
IGA,-38.2336524,143.1479231,No Suburb,No Postcode,
IGA,-37.7999747,144.9957652,No Suburb,No Postcode,306-310 Johnston Street
Coles,-37.7417028,142.0249015,No Suburb,No Postcode,
Woolworths,-37.9219021,145.0834939,No Suburb,No Postcode,
Woolworths,-37.8294287,145.058971,No Suburb,No Postcode,
Coles,-37.8291542,145.0563202,No Suburb,No Postcode,4-14 Burke Avenue
ALDI,-37.7487656,145.0407238,No Suburb,3081,318 Bell Street
Heidelberg IGA,-37.7491071,145.0426739,No Suburb,3081,28-32 The Mall
IGA X-press,-38.3611907,144.778608,No Suburb,No Postcode,
Unnamed Supermarket,-37.985339,145.2392158,No Suburb,No Postcode,
Aunt Maggies,-37.806295,144.981009,Fitzroy,3065,188 Gertrude Street
Yanakie General Store,-38.8125072,146.2076606,Yanakie,3960,3640 Meeniyan - Promontory Road
ALDI,-37.9287015,145.2513265,No Suburb,No Postcode,1100 Wellington Road
Ritchies,-37.9284957,145.2525168,No Suburb,No Postcode,
ALDI,-37.6550131,145.0163052,No Suburb,No Postcode,
Woolworths,-37.6541932,145.0175181,No Suburb,No Postcode,
Coles,-38.0686223,145.144883,No Suburb,No Postcode,116-118 Gladesville Boulevard
Coles,-37.7273876,144.8065418,No Suburb,No Postcode,80 Taylors Road
ALDI,-37.7263093,144.8066275,No Suburb,No Postcode,80 Taylors Road
Woolworths,-38.0770591,145.2496865,No Suburb,No Postcode,
Woolworths,-38.0770815,145.4836573,No Suburb,No Postcode,
Woolworths,-38.4531708,145.2397764,Cowes,3922,117-133 Thompson Avenue
Coles,-37.9654121,145.1730576,No Suburb,No Postcode,1-5 Douglas Street
Woolworths,-38.5642828,146.6769556,No Suburb,No Postcode,
KFL Supermarkets,-37.7887106,145.1610286,No Suburb,3109,1029 Doncaster Road
Jackson Court Corner Store Asian Grocery,-37.7879725,145.1483196,No Suburb,3108,14 Mitchell Street
KFL Supermarkets,-37.8343706,145.1720266,Forest Hill,3131,293-295 Canterbury Road
Coles,-37.9775716,145.2583643,No Suburb,No Postcode,78 Heatherton Road
Woolworths,-37.9762694,145.2592951,No Suburb,No Postcode,
Marco's IGA,-37.9809432,145.3167652,No Suburb,No Postcode,
Woolworths,-38.1941735,145.1594628,No Suburb,No Postcode,
Woolworths,-37.9841,145.077111,No Suburb,3194,
Coles,-37.9259993,145.1185924,No Suburb,3168,2-4 Cooke Street
Coles,-37.9280896,145.1181472,Clayton,3168,1389-1391 Centre Road
Woolworths,-37.9195218,145.0421121,No Suburb,No Postcode,
ALDI,-38.0060286,145.0852374,Mordialloc,3195,542 Main Street
Woolworths,-38.0080122,145.0867012,Mordialloc,3195,598-618 Main Street
ALDI,-37.9706192,145.0907731,No Suburb,No Postcode,288 Centre Dandenong Road
NQR,-37.5399578,143.8271732,No Suburb,No Postcode,
Woolworths,-37.6278019,145.0274063,Epping,3076,Epping Road & Lyndarum Avenue
Broadford IGA,-37.2047187,145.0459578,No Suburb,No Postcode,
IGA,-37.8928876,144.7282992,Point Cook,3030,48-56 Tom Roberts Parade
IGA Stonemans Village,-36.7749211,144.3051273,Kennington,3550,134 Condon Street
Foodworks,-37.7138737,145.0345145,No Suburb,No Postcode,
Coles,-37.0487286,143.7414417,No Suburb,No Postcode,96 Burke Street
ALDI,-37.0468814,143.7423115,No Suburb,No Postcode,111 Burke Street
Foodworks,-37.8300256,144.9693817,No Suburb,No Postcode,135 Wells Street
Woolworths,-38.1987144,145.4874367,No Suburb,No Postcode,
TT Mart,-37.7788898,144.9781392,Brunswick East,3057,25-27 Nicholson Street
Flinders General Store,-38.4736857,145.0169384,No Suburb,No Postcode,
Piedimonte's IGA,-37.7392053,144.9467635,Pascoe Vale,3044,Bell Street
Coles,-37.0234963,145.1337096,No Suburb,No Postcode,20 Tallarook Street
ALDI,-37.6998024,145.058831,No Suburb,No Postcode,584-604 Grimshaw Street
Elwood Supermarket,-37.8808894,144.9915674,No Suburb,No Postcode,
ALDI,-37.8650285,144.9877554,No Suburb,No Postcode,135 Inkerman Street
Coles,-38.0522568,145.2568486,No Suburb,No Postcode,75 Lynbrook Boulevard
ALDI,-37.7653328,144.9230314,No Suburb,No Postcode,14-16 Hall Street
Coles,-38.0185007,145.306709,No Suburb,No Postcode,22-55 Overland Drive
Woolworths,-38.0168578,145.3006679,No Suburb,No Postcode,
Foodworks,-37.0990737,147.5941986,No Suburb,No Postcode,
Woolworths,-37.5744459,144.9200112,No Suburb,No Postcode,
Ritchies,-38.3571429,144.9047187,No Suburb,No Postcode,
IGA,-37.7920177,144.9193602,No Suburb,No Postcode,
Foodworks,-37.5585738,149.7573691,No Suburb,No Postcode,
ALDI,-37.7497051,144.8605537,No Suburb,No Postcode,
Woolworths,-37.7502451,144.8609684,No Suburb,No Postcode,
Coles,-36.4082906,145.3910392,No Suburb,No Postcode,
Coles,-37.7592178,144.7534185,No Suburb,No Postcode,15-25 Westwood Drive
Woolworths,-37.7230371,144.7516,No Suburb,No Postcode,
Coles,-38.2390054,146.3983912,No Suburb,No Postcode,82 George Street
IGA,-37.5580103,149.7568381,No Suburb,No Postcode,
IGA,-37.9663604,147.0796469,No Suburb,3862,67 Tyers Street
Ritchie's IGA,-38.0219331,145.1181056,Aspendale Gardens,3195,11 Narelle Drive
Natural Food Market,-37.7165059,145.1209881,No Suburb,No Postcode,33 Were Street
Foodworks,-37.7159148,145.1211658,Montmorency,3094,49 Were Street
Woolworths,-37.6666811,145.060937,No Suburb,No Postcode,
Champions IGA St Leonards,-38.1714402,144.7172909,No Suburb,No Postcode,1370 Murradoc Road
Tip Top Butchers,-37.7206159,145.1378877,No Suburb,No Postcode,266 Bolton Street
Toora Supermarket,-38.6652394,146.3234704,No Suburb,No Postcode,
ALDI,-38.1697376,144.3922925,No Suburb,No Postcode,
Woolworths,-38.1698198,144.3932902,No Suburb,No Postcode,
Woolworths,-38.1685801,144.3885481,No Suburb,No Postcode,
Woolworths,-37.2825217,142.9271172,No Suburb,No Postcode,
NQR,-38.0229886,145.3049547,No Suburb,No Postcode,
Coles,-37.8732777,144.7759322,No Suburb,No Postcode,1-23 Central Avenue
Woolworths,-38.0896434,144.3371719,No Suburb,No Postcode,
Coles,-38.1465194,144.3634189,No Suburb,No Postcode,
Supa IGA Thomastown,-37.6777574,144.9989322,No Suburb,3074,122 Main Street
Coles,-37.7824349,144.9148103,No Suburb,No Postcode,320-380 Epsom Road
ALDI,-38.2230476,145.0403197,No Suburb,No Postcode,M02 Main Street
Bittern IGA,-38.3366826,145.1770695,No Suburb,No Postcode,
IGA,-37.9232123,145.166114,No Suburb,No Postcode,
IGA,-37.9807237,146.7865174,No Suburb,No Postcode,
Coles,-37.7587406,144.7901048,No Suburb,No Postcode,
IGA X-press plus Liquor,-37.804482,144.966104,Carlton,3053,109 Lygon Street
Coles,-37.9347488,145.1568383,No Suburb,No Postcode,819-829 Princes Highway
Rosedale IGA,-38.1517212,146.7882204,No Suburb,No Postcode,
ALDI,-37.7617795,145.1696944,No Suburb,No Postcode,181 Reynolds Road
Coles,-37.7612778,145.1698916,No Suburb,No Postcode,
Woolworths,-37.7621241,145.1680902,No Suburb,No Postcode,
IGA,-37.4860094,144.5889963,No Suburb,No Postcode,
Coles,-37.4851623,144.5906378,No Suburb,No Postcode,10-20 Aitken Street
ALDI,-37.853724,145.1510417,No Suburb,No Postcode,
Fresh Central,-37.8630062,145.0772974,Ashburton,3147,207 High Street
IGA,-37.8630603,145.0777897,Ashburton,3147,"219,221 High Street"
Mirboo North IGA,-38.4014473,146.1585741,No Suburb,3871,72-74 Ridgway
IGA,-37.8108447,147.6310258,No Suburb,No Postcode,
Woolworths Metro,-37.7888884,144.9910691,No Suburb,3068,141-147 Queens Parade
ALDI,-37.7709122,144.9616256,Brunswick,3056,292-298 Sydney Road
IGA,-37.758154,144.9393573,Brunswick West,3055,6 Olive York Way
Coles,-38.6037001,145.5864483,No Suburb,No Postcode,2 Biggs Drive
Foodworks,-38.754813,143.668025,Apollo Bay,No Postcode,
ALDI,-37.829949,144.9573832,No Suburb,No Postcode,100 Market Street
Village Grocer,-37.1461904,146.4489816,No Suburb,No Postcode,
Woolworths,-37.7441436,142.0244852,No Suburb,No Postcode,
IGA Xpress,-37.7273378,145.0702893,No Suburb,No Postcode,
King & Godfree,-37.798456,144.967093,No Suburb,No Postcode,293 Lygon Street
Woolworths,-38.0727117,145.4372643,No Suburb,No Postcode,
Foodworks,-38.0266194,145.1022339,No Suburb,3195,130-131 Station Street
Woolworths,-37.8001309,145.2830309,Croydon,3136,224-238 Mount Dandenong Road
Xin Fang Supermarket,-37.808246,144.955088,No Suburb,No Postcode,
Frootz on Parade,-37.789079,144.989017,No Suburb,No Postcode,274 Queens Parade
Foodworks,-37.2329489,145.9099342,No Suburb,No Postcode,
Coles,-37.7563965,145.3542278,Lilydale,3140,Castella Street
Champions SUPA IGA Heathcote,-36.9195203,144.7057016,No Suburb,No Postcode,
Woolworths,-36.7039071,144.3184178,No Suburb,No Postcode,
Ritchies,-38.0268159,145.30377,No Suburb,No Postcode,
ALDI,-37.8825998,144.7360131,No Suburb,No Postcode,4 Main Street
Coles,-37.8825051,144.7346373,No Suburb,No Postcode,1 Main Street
Doyles IGA,-35.98254,142.9172578,No Suburb,No Postcode,
Jasons IGA and Liquor,-35.069117,142.3146899,No Suburb,No Postcode,
Sonsa Foods,-37.8025305,144.9838161,No Suburb,No Postcode,216-218 Smith Street
Woolworths,-37.6803737,144.9182109,No Suburb,No Postcode,
Coles,-37.679686,144.9186507,No Suburb,No Postcode,1099-1169 Pascoe Vale Road
Woolworths,-38.1065905,147.0621143,No Suburb,No Postcode,
Ritchies,-37.9667782,146.976573,No Suburb,No Postcode,
KFL Supermarkets,-37.7825675,144.8642093,Braybrook,3019,227 Ballarat Road
ALDI,-37.7561861,145.3119747,Chirnside Park,3116,239-241 Maroondah Highway
Coles,-37.7569568,145.3133008,No Suburb,No Postcode,
ALDI,-37.8952997,144.7522522,No Suburb,No Postcode,300 Point Cook Road
Woolworths,-37.8306564,144.9573651,No Suburb,No Postcode,
Woolworths,-37.5976715,144.9384264,No Suburb,No Postcode,
Blake Family Grocers,-37.572902,143.835328,No Suburb,No Postcode,601 La Trobe Street
Woolworths,-37.9874773,145.2177309,No Suburb,No Postcode,
Woolworths,-37.7732859,144.8896964,No Suburb,No Postcode,
Fruit 2 Go,-38.002978,144.491822,No Suburb,No Postcode,
Vegetable Connection,-37.799665,144.97808,Fitzroy,3065,255 Brunswick Street
ALDI,-38.1626292,145.9269407,No Suburb,No Postcode,
Coles,-37.7837126,144.7711213,No Suburb,3030,Mount Derrimut Road
Supa IGA,-37.7666374,144.77478,No Suburb,No Postcode,
Ritchies,-38.1062113,147.0677762,No Suburb,No Postcode,
Foodworks,-38.4089481,145.5286197,No Suburb,No Postcode,
Woolworths,-36.7656316,144.2813908,No Suburb,No Postcode,
IGA Friendly Grocer,-37.7911005,144.8899038,No Suburb,No Postcode,
Coles,-37.638387,144.9323564,No Suburb,No Postcode,250 Somerton Road
Aldi,-37.6379203,144.9328875,No Suburb,No Postcode,
Woolworths Metro,-37.8268606,144.9593308,No Suburb,No Postcode,
Foodworks,-37.1930254,145.7099802,No Suburb,No Postcode,
Woolworths,-37.7024047,144.7994466,No Suburb,No Postcode,
IGA fawkner,-37.7025033,144.9657419,No Suburb,No Postcode,
Supa IGA,-37.6505966,144.9224592,No Suburb,No Postcode,
Woolworths,-37.880123,147.9872717,No Suburb,No Postcode,
Lin's Asian Grocery,-37.806289,144.96093,No Suburb,No Postcode,
Dae Bark Mart,-37.818584,144.963055,No Suburb,No Postcode,Flinders Street
India at home,-37.889776,145.0442041,No Suburb,No Postcode,1208 Glen Huntly Road
Rainbow IGA X-press,-35.8981971,141.9948314,Rainbow,3424,36 Federal Street
Pakenham produce & saddlry,-38.087663,145.5025226,No Suburb,No Postcode,
Foodworks,-37.7079778,148.4549913,No Suburb,No Postcode,70 Nicholson Street
Rupanyup Supermarket,-36.6307452,142.6307295,No Suburb,No Postcode,
Foodworks,-37.7304013,144.9278959,No Suburb,No Postcode,435 Gaffney Street
Marnoo General Store,-36.670831,142.8698477,No Suburb,No Postcode,
Woolworths,-38.0859314,145.3172853,No Suburb,No Postcode,
IGA,-37.8276939,144.9665201,No Suburb,No Postcode,151 Sturt Street
IGA,-37.9024543,144.6515503,No Suburb,No Postcode,
ALDI,-37.9051618,144.6577989,No Suburb,No Postcode,77-83 Synnot Street
Woolworths,-37.882065,144.7024369,No Suburb,No Postcode,
Foodworks,-37.7844714,144.9381234,No Suburb,No Postcode,
Corryong IGA and Liquor,-36.1951371,147.9055788,No Suburb,No Postcode,
Ritchies Supa IGA,-38.3284148,143.0780706,No Suburb,No Postcode,
Pura Milk,-37.901546,145.054541,Carnegie,No Postcode,329 Koornang Road
IGA,-37.7717526,144.9986811,No Suburb,3070,284-288 High Street
Unnamed Supermarket,-36.7429339,147.1700818,No Suburb,No Postcode,
The Dome Express,-37.819346,144.948342,Docklands,3008,71-77 Batmans Hill Drive
Big Bazaar,-37.892723,144.728699,No Suburb,No Postcode,
IGA,-37.5141529,145.1181855,No Suburb,No Postcode,
Quintons SUPA IGA,-37.7477859,145.2073425,No Suburb,No Postcode,
Ciccone's IGA Plus Liquor,-36.2162184,147.1792663,No Suburb,No Postcode,25 Towong Street
Sunshine Fruit Market,-37.7848052,144.8331028,No Suburb,No Postcode,
Đại Phát Supermarket,-37.78391,144.832682,No Suburb,No Postcode,294 Hampshire Road
Hong Hung,-37.7836812,144.8326149,No Suburb,No Postcode,
IGA,-36.5746063,143.8674363,No Suburb,No Postcode,
Coles,-37.6889515,144.9599995,No Suburb,No Postcode,1434-1468 Sydney Road
Friendly Grocer,-37.7201757,144.9599829,Merlynston,No Postcode,23 Merlyn Street
ALDI,-37.6748983,144.4392753,No Suburb,No Postcode,158-196 Main Street
IGA,-37.6594691,144.4411647,No Suburb,No Postcode,
Foodworks,-36.4202837,143.6136597,Wedderburn,3518,15 Kerr Street
ALDI,-37.6594053,145.0298308,No Suburb,No Postcode,347-371 Dalton Road
Tân Mỹ,-37.799386,144.8998,No Suburb,No Postcode,77 Nicholson Street
Foodworks,-37.7237903,144.9469242,Pascoe Vale,3044,173 Derby Street
Orbost IGA X-press plus Liquor,-37.7050097,148.4556723,Orbost,3888,137 Nicholson Street
Family Supermarket,-37.695967,144.96855,No Suburb,No Postcode,87 Anderson Road
Anderson Road Fruit Market,-37.695906,144.967925,No Suburb,No Postcode,105 Anderson Road
Foodworks,-37.802612,144.978102,No Suburb,No Postcode,
Ritchies,-37.7941495,145.2357555,Ringwood North,3134,204 Warrandyte Road
Coles,-36.1211495,146.881416,No Suburb,No Postcode,
Halls Gap General Store,-37.1393918,142.5192998,No Suburb,No Postcode,
Coles,-37.7424437,144.9658474,No Suburb,No Postcode,451-459 Sydney Road
IGA,-37.7951171,144.9415256,North Melbourne,3051,23 Melrose Street
ALDI,-38.1040078,147.0660645,No Suburb,No Postcode,396-420 Raymond Street
IGA,-36.0543708,146.460701,No Suburb,No Postcode,
IGA,-38.434311,145.8259609,No Suburb,No Postcode,
KFL Supermarkets,-37.7446282,144.9661578,No Suburb,No Postcode,376 Sydney Road
IGA,-37.7556161,144.9755292,No Suburb,No Postcode,
Woolworths,-36.3127132,145.0469747,No Suburb,No Postcode,
Trade Land,-38.476991,143.217219,No Suburb,No Postcode,
Eve IGA,-38.0725277,145.3160443,Narre Warren South,3805,William Thwates Drive
Woolworths,-36.8098531,144.2423203,No Suburb,3555,285 High Street
Coles,-36.8108831,144.2435224,No Suburb,No Postcode,267 High Street
Hometown Asian Supermarket,-37.8085182,144.9607589,No Suburb,No Postcode,
Woolworths,-37.8474492,144.9927111,No Suburb,No Postcode,
ALDI,-37.7828586,144.8341988,No Suburb,No Postcode,324-328 Hampshire Road
IGA Burwood,-37.850526,145.095075,No Suburb,No Postcode,
Champion's IGA,-38.2077503,144.3290327,No Suburb,No Postcode,
Foodworks,-38.0861344,144.3519234,No Suburb,No Postcode,
IGA,-37.7160681,145.0051747,No Suburb,No Postcode,
Woolworths,-37.7296798,144.9835419,No Suburb,No Postcode,
NQR,-36.8118377,144.241172,No Suburb,3555,293 High Street
ALDI,-37.8556553,145.1823871,No Suburb,No Postcode,495 Burwood Highway
Crown Asian Supermarket,-37.8147623,144.9519191,No Suburb,No Postcode,
Woolworths,-37.7128214,145.0475954,No Suburb,No Postcode,
Woolworths,-37.8208755,145.0363418,No Suburb,No Postcode,
Woolworths,-36.1389798,146.892847,No Suburb,No Postcode,
IGA Apollo Bay Plus Liquor,-38.7564448,143.66925,No Suburb,No Postcode,103-109 Great Ocean Road
IGA,-37.6992371,145.0329186,No Suburb,No Postcode,66-68 Gertz Avenue
IGA,-37.8532747,145.0414858,Melbourne,No Postcode,1368 Malvern Road
Foodworks,-37.7353803,144.9907533,No Suburb,No Postcode,
Coles,-37.6972847,145.0579698,No Suburb,No Postcode,5 Nickson Street
Nathalia IGA plus Liquor,-36.0578071,145.2042488,No Suburb,No Postcode,
Hopetoun IGA,-35.727309,142.3641292,No Suburb,No Postcode,
Foodworks,-36.2509813,142.3947251,No Suburb,No Postcode,
Ritchies IGA + Liquor,-36.2520952,142.3952382,No Suburb,No Postcode,
Science Store,-37.9109319,145.1302193,No Suburb,No Postcode,
Coles,-37.7976134,144.8061424,No Suburb,No Postcode,136 The Avenue
KFL Supermarkets,-37.8818907,145.2334277,No Suburb,No Postcode,
Woolworths,-37.8353274,144.8466274,No Suburb,No Postcode,
IGA,-37.7638231,145.0547001,Eaglemont,3084,Silverdale Road
ALDI,-36.119091,146.8815944,No Suburb,No Postcode,72 Elgin Boulevard
Woolworths Metro,-37.81666,144.8916701,Yarraville,3013,4-6 Anderson Street
IGA,-37.8166274,144.8913811,Yarraville,3013,12-14 Anderson Street
ALDI,-38.2249896,145.1774728,No Suburb,No Postcode,1089-109 Frankston-Flinders Road
ALDI,-37.8846726,145.0588846,Carnegie,3163,2-18 Koornang Road
IGA,-36.3591971,146.6859146,No Suburb,No Postcode,
Foodworks,-36.3127237,146.8397138,No Suburb,No Postcode,
Coles,-37.8117934,145.2299716,Ringwood,3134,Maroondah Highway
Woolworths,-37.867388,144.7424967,No Suburb,No Postcode,
Aldi,-37.9859544,145.2167401,No Suburb,No Postcode,
Aldi,-37.75006,144.7743439,No Suburb,No Postcode,
Coles,-37.9060865,145.0051856,No Suburb,No Postcode,380 Bay Street
Woolworths,-37.8742111,144.6773257,No Suburb,No Postcode,
Woolworths,-37.862377,144.6871827,No Suburb,No Postcode,
Woolworths,-37.7771492,145.4590878,Seville,3139,568 Warburton Highway
FoodWorks,-37.7011658,145.0720957,No Suburb,No Postcode,
Woolworths,-38.0052689,145.2483456,No Suburb,No Postcode,
Coles,-37.849012,144.7037194,No Suburb,No Postcode,380 Sayers Road
ALDI,-37.8490479,144.7053019,No Suburb,No Postcode,380 Sayers Road
Longwarry Supermarket,-38.1120163,145.7676094,No Suburb,No Postcode,
Coles,-37.6735307,145.159387,No Suburb,No Postcode,67 Main Hurstbridge Road
Ritchies,-38.1851366,145.0898437,Mount Eliza,3930,89 Mount Eliza Way
Coles,-38.0235593,144.410367,No Suburb,No Postcode,2-4 Waverley Road
Andres SUPA IGA,-37.709047,145.0825705,No Suburb,No Postcode,97 Watsonia Road
Gervasi FoodWorks,-37.7560827,144.9641749,Brunswick,3056,872 Sydney Road
ALDI,-37.724802,145.0289822,No Suburb,No Postcode,850 Plenty Road
Coles,-37.7254998,145.0281053,No Suburb,No Postcode,
Foodworks,-36.562886,146.7266738,Myrtleford,3737,91 Myrtle Street
Coles,-37.8479109,144.9935468,No Suburb,No Postcode,303 Chapel Street
ALDI,-38.4786703,145.9449685,No Suburb,No Postcode,8-10 Bruce Street
ALDI,-37.6784478,144.9196794,No Suburb,No Postcode,1099-116 Pascoe Vale Road
IGA Moe,-38.1886721,146.2502187,No Suburb,No Postcode,
Woolworths,-37.6868858,144.5610829,No Suburb,No Postcode,
Aldi,-37.6868586,144.5604697,No Suburb,No Postcode,
Dunolly Friendly Grocer,-36.8594826,143.7315267,No Suburb,No Postcode,
Woolworths,-37.8371902,144.9969896,No Suburb,No Postcode,
Coles,-38.3811893,142.5207433,No Suburb,No Postcode,154 Raglan Parade
IGA,-38.1307474,141.630708,No Suburb,No Postcode,
Coles,-37.7315658,144.9503452,No Suburb,No Postcode,180 Gaffney Street
Woolworths,-38.1607658,144.306154,No Suburb,No Postcode,
Coles,-37.5923694,144.9150075,No Suburb,No Postcode,340 Craigieburn Road
Woolworths,-37.5941929,144.914809,No Suburb,No Postcode,
Coles,-37.639343,144.8825125,Greenvale,3059,1 Greenvale Drive
IGA Cheltenham,-37.9531772,145.0633289,No Suburb,No Postcode,39 Bernard Street
Tang Asian Grocery,-37.812105,144.96749,No Suburb,No Postcode,
Foodworks,-35.5040035,142.8501592,No Suburb,No Postcode,
Coles,-37.8038542,145.1021788,No Suburb,No Postcode,342-344 Belmore Road
Woolworths,-38.0664709,145.3009876,No Suburb,No Postcode,
ALDI,-38.0677336,145.3005853,No Suburb,No Postcode,400 Narre Warren Road
Pickles and Spices,-37.6951892,145.012757,No Suburb,No Postcode,
Coles,-37.803803,144.983619,Collingwood,3066,172 Smith Street
Allansford Cheese World,-38.3954714,142.628306,Allansford,No Postcode,5332 Great Ocean Road
Woolworths,-38.1002009,145.2939531,No Suburb,No Postcode,
ALDI,-38.1000051,145.2933188,No Suburb,No Postcode,1 Linsell Boulevard
ALDI,-37.7784331,145.4589302,Seville,3139,638 Warburton Highway
Fitzroy IGA,-37.794231,144.9793382,No Suburb,No Postcode,
Crown Asian Supermarket,-37.8097911,144.960887,No Suburb,No Postcode,
ALDI,-37.8284837,144.8476986,No Suburb,No Postcode,124-134 Millers Road
Rangoon City Mart,-37.7985307,145.2810421,Croydon,3136,195 - 197 Mount Dandenong Road
Astee,-37.8791086,145.1630647,No Suburb,No Postcode,
Tân Hung Asian Grocery,-37.8104013,144.9980745,No Suburb,No Postcode,
Richmond Grocery Store,-37.810333,144.997368,No Suburb,No Postcode,
IGA,-37.784938,144.9385839,No Suburb,No Postcode,
Coles,-37.8013978,144.897529,No Suburb,No Postcode,16A Albert Street
Woolworths,-37.8843527,144.7344038,No Suburb,No Postcode,
Local Grocer - IGA,-37.8296604,144.8858342,No Suburb,No Postcode,
ALDI,-37.8458636,144.9935728,No Suburb,No Postcode,34 Elizabeth Street
Foodworks,-37.9807957,145.1658175,No Suburb,No Postcode,
IGA Local Grocer,-38.2683649,144.6608618,Queenscliff,3225,75 Hesse Street
Eskdale IGA X-press + Liquor,-36.4645659,147.2489774,Eskdale,3701,3764 Omeo Highway
Woolworths,-38.1036137,145.324723,No Suburb,No Postcode,
Supa IGA,-36.7882845,145.1520348,No Suburb,No Postcode,
Woolworths,-37.5870274,145.1276968,No Suburb,No Postcode,
International Foods,-37.8512484,144.7071574,No Suburb,No Postcode,
The Fruit Men,-37.9661394,145.0553864,No Suburb,No Postcode,273 Charman Road
IGA,-37.8249989,145.0816328,No Suburb,No Postcode,
Shahi India,-37.8646311,145.0281237,No Suburb,No Postcode,
Woolworths,-38.1685756,144.5451168,No Suburb,No Postcode,
Foodworks,-37.0515675,146.0866578,Mansfield,3722,119 High Street
Tormey's IGA plus liquor,-36.2684509,143.3490755,No Suburb,No Postcode,
ALDI,-37.7912353,145.0947384,No Suburb,No Postcode,313 Doncaster Road
KT Mart Asian Grocery,-37.8160472,145.1934578,No Suburb,No Postcode,515 Maroondah Highway
ALDI,-37.8718502,144.7751035,No Suburb,No Postcode,1 Central Avenue
Coles,-38.0321022,145.3450266,Berwick,3806,2 Richardson Grove
ALDI,-37.8763934,145.4089514,No Suburb,No Postcode,32-36 Main Road
Boccaccio SUPA IGA,-37.8015537,145.0626975,No Suburb,No Postcode,1050 Burke Road
USA Foods,-37.9431586,145.0713505,No Suburb,No Postcode,67 - 73 Cochranes Road
Woolworths,-37.8405629,145.0081654,No Suburb,No Postcode,
Springvale South SUPA IGA,-37.97202,145.1497316,No Suburb,No Postcode,
Woolworths,-37.8400099,144.6738163,No Suburb,No Postcode,
Hindustan Wholesale & Retail Groceries,-38.0161502,145.224631,No Suburb,No Postcode,50 Greens Road
Continental Supermarket,-37.7879567,144.9992427,No Suburb,3068,58 Spensley Street
IGA,-38.1258028,146.5732949,No Suburb,No Postcode,
Dyson's IGA Supermarket,-36.0884972,145.4421023,No Suburb,No Postcode,
Foodworks,-36.0915687,145.4423796,No Suburb,No Postcode,
Woolworths,-36.5495184,145.9889959,Benalla,3672,49-59 Smythe Street
ALDI,-36.549889,145.9901922,No Suburb,No Postcode,141-153 Bridge Street East
NQR,-38.1649464,144.3899105,No Suburb,No Postcode,Watsons Road
Unwrapped Pantry,-37.9301511,145.3595351,Belgrave South,3160,164 Colby Drive
IGA,-38.3498232,141.603926,Portland,3305,Percy Street
Coles,-38.1191101,145.3205054,No Suburb,No Postcode,
IGA,-37.9139878,145.2570252,No Suburb,No Postcode,
The Monash Merchant,-37.9118936,145.1359711,No Suburb,No Postcode,
Warrnambool Supa IGA & Liquor,-38.3843271,142.4793343,No Suburb,No Postcode,221 Timor Street
Mediterranean Wholesalers,-37.7665945,144.9623648,No Suburb,No Postcode,482 Sydney Road
Woolworths,-37.8196524,145.1213954,No Suburb,No Postcode,
Balmoral Community Store,-37.2476232,141.8408747,No Suburb,No Postcode,Natimuk - Hamilton Road
Woolworths,-36.7754017,144.3061077,No Suburb,No Postcode,
Paradise Food City,-37.7170098,145.0111349,No Suburb,No Postcode,
Unnamed Supermarket,-37.7171493,145.009976,No Suburb,No Postcode,
Unnamed Supermarket,-37.7171224,145.0096656,No Suburb,No Postcode,
Unnamed Supermarket,-37.7170874,145.0094464,No Suburb,No Postcode,
Woolworths Metro,-37.8095589,144.9612274,No Suburb,No Postcode,
Foodworks,-37.7915665,145.0938599,Balwyn North,3104,293 Doncaster Road
Foodworks,-37.7646416,144.9441587,No Suburb,No Postcode,
Coles,-37.6216014,145.0064337,No Suburb,No Postcode,315A Harvest Home Road
IGA,-36.9971359,144.0690049,No Suburb,No Postcode,
IGA,-37.8224729,144.9650768,No Suburb,No Postcode,89-91 City Road
City Mart,-37.8067075,144.9600612,No Suburb,No Postcode,
Woolworths,-37.8979027,144.7267297,No Suburb,No Postcode,
Weir's IGA,-36.3701371,142.9821378,Donald,3480,41-43 Woods Street
Foodworks Laverton,-37.8528305,144.7754259,Laverton,3028,54-56 Bladin Street
ALDI,-36.7038221,144.3168295,No Suburb,No Postcode,182-192 Midland Highway
IGA,-36.378887,141.2390166,No Suburb,No Postcode,
Coles,-37.711603,144.7415653,Taylors Hill,3037,127 Gourlay Road
IGA,-37.8034488,145.0841241,Balwyn North,3104,255 Belmore Road
Unnamed Supermarket,-39.0307625,146.3209425,No Suburb,No Postcode,
Woolworths,-38.0117526,145.1606959,No Suburb,No Postcode,
Coles,-37.7017311,144.574255,No Suburb,No Postcode,11-17 Station Road
Coles,-37.8319294,144.9609368,No Suburb,3205,229 Coventry Street
Foodworks,-38.0040859,145.4095133,Beaconsfield Upper,3808,4 St Georges Road
Daiso Flinders,-37.8179451,144.9650971,Melbourne,3000,276 Flinders Street
GloHealth,-37.8847136,145.003886,No Suburb,No Postcode,
IGA,-37.7530941,145.696844,No Suburb,No Postcode,
Coles,-37.8596976,144.6665023,Melbourne,3029,Tarneit Road & Hogans Road
The Fruit Shack,-36.7554714,144.2647662,Ironbark,3550,46 Eaglehawk Road
IGA,-36.7954253,144.2431058,No Suburb,3555,20 Carpenter Street
ALDI,-36.7972399,144.2432579,No Suburb,3555,Lockwood Road
ALDI,-37.7731793,145.1118816,No Suburb,No Postcode,299-301 Manningham Road
LH Supermarket,-37.9741894,145.2017448,No Suburb,No Postcode,
India At Home,-37.9240319,145.1204953,No Suburb,No Postcode,131-133 Carinish Road
Coles,-38.3410762,143.5940289,No Suburb,No Postcode,140 Bromfield Street
Smart Supermarket,-37.7656708,145.0919275,No Suburb,No Postcode,
ARC Asian Grocers,-37.7383251,145.0022413,No Suburb,3072,1 Cook Street
Roaring Bear Asian Grocery,-37.8283644,145.121194,No Suburb,No Postcode,
IGA,-35.8094476,144.2220266,No Suburb,No Postcode,
My Tam Grocery,-37.9620491,145.1427,No Suburb,No Postcode,
Pride Of Punjab,-37.9621014,145.1432283,No Suburb,No Postcode,
Go Vita,-38.3798423,142.4801285,No Suburb,No Postcode,
Savemore,-37.9409631,145.1660729,No Suburb,No Postcode,
One Stop Minimart,-37.9489788,145.1535441,No Suburb,No Postcode,1 Sandown Road
Vacancy,-37.9517484,145.1517065,No Suburb,No Postcode,3B Windsor Avenue
Thai Hoa Long Co,-37.9488938,145.1511298,No Suburb,No Postcode,
Shahi,-37.9459516,145.1529339,No Suburb,No Postcode,
KFL Supermarkets,-37.9505791,145.1504806,No Suburb,No Postcode,
Siem Reap's Grocery,-37.9657007,145.1743815,No Suburb,No Postcode,
Coles,-37.6730186,145.0169622,No Suburb,No Postcode,47-71 May Road
Zahra Grocery,-37.6730468,145.0161862,No Suburb,No Postcode,
Maiwand Supermarket,-37.9864078,145.2126911,No Suburb,No Postcode,
MJ Butcher Fruit Veg,-37.9868238,145.2147653,No Suburb,No Postcode,9 Langhorne Street
Woolworths Metro,-37.8166713,144.9645325,No Suburb,No Postcode,
Coles,-36.1202037,146.8888404,No Suburb,No Postcode,1-13 South Street
Woolworths,-36.1210509,146.8867459,No Suburb,No Postcode,
Koh's Market Place,-37.9718495,145.1497789,No Suburb,No Postcode,
Trường Giang Grocery,-37.9715195,145.1490246,No Suburb,No Postcode,
Mekong Groceries,-37.9717702,145.1496318,No Suburb,No Postcode,162 Athol Road
Cường Phát,-37.9716667,145.1490097,No Suburb,No Postcode,571 Springvale Road
Foodworks,-37.6938639,144.7545298,No Suburb,No Postcode,595 Melton Highway
Morgan's IGA,-37.7260976,144.7809164,No Suburb,No Postcode,
Dandy Bahar Supermarket,-37.9849935,145.2121829,No Suburb,No Postcode,321 Thomas Street
C.J. Spifes & Videos,-37.985262,145.2136749,No Suburb,No Postcode,355-359
Rockyz Minimart,-37.9843967,145.2142798,No Suburb,No Postcode,
King Supermarket,-37.9852398,145.2126374,No Suburb,No Postcode,
Sadaqat,-37.9863454,145.2123237,No Suburb,No Postcode,
Golden Groceries,-37.9003419,145.090747,No Suburb,No Postcode,56 Portman Street
ALDI,-37.8750268,145.164852,No Suburb,No Postcode,235 Springvale Road
Thornbury Cellars IGA,-37.7511479,144.9881648,No Suburb,3071,141 Miller Street
IGA,-36.6168993,142.4704091,No Suburb,No Postcode,
OK Asian Supermarket,-37.8853827,145.0575483,No Suburb,No Postcode,
Indian Grocery,-37.885233,145.0575882,No Suburb,No Postcode,
MKS Spices n Things,-37.9892872,145.2152267,No Suburb,No Postcode,
African Products,-37.9862461,145.2152154,No Suburb,No Postcode,
Bestway Supermarket,-37.9883953,145.2148283,No Suburb,No Postcode,
Queenscliff General Store,-38.2696413,144.6547677,No Suburb,No Postcode,
Kew Friendly Supermarket,-37.7960183,145.0354729,Kew,3101,81A Willsmere Road
IGA,-38.4043593,144.1900356,No Suburb,No Postcode,
Altona IGA,-37.8658492,144.8306619,Altona,3018,103 Pier Street
Mt Dandenong IGA,-37.8479014,145.3607598,No Suburb,No Postcode,
4 Cousins,-37.997159,145.0844063,Parkdale,3195,363-383 Nepean Highway
Frozen Mart,-37.950287,145.1509854,No Suburb,No Postcode,
Foodworks,-37.9669807,145.0568951,No Suburb,No Postcode,
L' Plenty food,-37.7271506,145.113013,No Suburb,No Postcode,101-105 Main Road
Woolworths,-37.5434344,143.7860022,No Suburb,No Postcode,6 Coltman Plaza
Aldi,-37.8373664,144.6922719,No Suburb,No Postcode,
Coles,-37.837283,144.6912622,No Suburb,No Postcode,540 Derrimut Road
Unnamed Supermarket,-37.9540169,143.343257,No Suburb,No Postcode,
Woolworths,-38.0642602,145.4349416,No Suburb,3809,
Four Seasons Supermarket,-37.9104776,145.189614,No Suburb,No Postcode,
IGA,-37.2501959,144.4532383,Kyneton,3444,62 Mollison Street
Organic Wholefoods,-37.783151,144.9347807,No Suburb,No Postcode,137 Mount Alexander Road
Oasis,-37.777905,145.0181124,Fairfield,3078,92-96 Station Street
IGA,-37.7762599,145.0183324,Fairfield,3078,140 Station Street
Unnamed Supermarket,-37.9882161,145.2183473,No Suburb,No Postcode,
Cardamones Food and Wine,-37.7765628,145.0187591,Fairfield,3078,143 Station Street
Woolworths Metro,-37.8159063,144.9560406,No Suburb,No Postcode,
Seven Days Food Store,-37.6997006,144.996714,Reservoir,3073,91 Hughes Parade
The Source Bulk Foods,-37.7752903,144.960885,No Suburb,No Postcode,112 Sydney Road
Woolworths Metro,-37.7578952,144.9638489,No Suburb,No Postcode,808-818 Sydney Road
ALDI,-38.184994,144.4540089,No Suburb,No Postcode,641-659 Bellarine Highway
Quoc Te United Asian Food Stores,-37.7388992,145.0037023,Preston,3072,445 High Street
Dong Thinh International Food Store,-37.7389957,145.0036864,Preston,3072,441 High Street
Big 8 Asian Foods,-37.7390419,145.0036757,Preston,3072,439 High Street
Mrs Wan's Asian Mart Cranbourne,-38.1116346,145.2825114,No Suburb,No Postcode,47-53 High Street
Cranbourne Fresh Food Centre,-38.1122855,145.2832774,No Suburb,No Postcode,
Casey Asian Mart,-38.1103105,145.2830502,No Suburb,No Postcode,
Foodmart Kinglake,-37.5317711,145.3410385,No Suburb,No Postcode,
IGA,-37.0858706,143.4738061,No Suburb,No Postcode,
IGA,-37.7787245,144.9764299,No Suburb,No Postcode,
Bestow,-37.7824013,144.8335996,No Suburb,No Postcode,
Bình Hưng,-37.7842255,144.8324614,No Suburb,No Postcode,
Vạn Hưng,-37.7841742,144.8324769,No Suburb,No Postcode,
Little India Groceries,-37.7824154,144.8336851,No Suburb,No Postcode,
Tài Phát,-37.7844741,144.8324182,No Suburb,No Postcode,
Sunshine Fresh Fruit Market,-37.7849129,144.8336095,No Suburb,No Postcode,
Binh Thuan,-37.7847632,144.8328079,No Suburb,No Postcode,
Roshan,-37.7861841,144.8327165,No Suburb,No Postcode,
Woolworths,-37.5940251,145.0899513,No Suburb,No Postcode,
Coles,-38.2330593,145.0515325,No Suburb,No Postcode,
Coles,-37.7781318,144.8514648,No Suburb,No Postcode,
Woolworths,-37.8456299,145.0422777,Hawthorn East,3123,742 Toorak Road
Bharat Traders,-37.7972367,144.877092,No Suburb,No Postcode,580 Barkly Street
Pacific Mart,-38.0345583,145.2645022,No Suburb,No Postcode,2 Orient Place
Indah Asian Market,-38.0330321,145.2659689,No Suburb,No Postcode,
Sti Lankan,-38.0351067,145.2662178,No Suburb,No Postcode,
Thuan Khiem,-37.7435227,144.8009276,No Suburb,No Postcode,12 Alfrieda Street
Unnamed Supermarket,-37.8007293,144.8685916,No Suburb,No Postcode,
African Groceries,-37.7878333,144.8309159,No Suburb,No Postcode,
Tyabb IGA,-38.2614936,145.1901118,No Suburb,No Postcode,
Huntingdale IGA X-press,-37.9099644,145.1035576,No Suburb,No Postcode,299 Huntingdale Road
KFL Supermarkets,-37.7994862,144.8985563,No Suburb,No Postcode,
Magid Afghan Supermarket,-37.7436146,144.9663291,No Suburb,No Postcode,414 Sydney Road
Friendly Cellars,-37.8987131,145.0908689,No Suburb,No Postcode,
Foodworks,-36.8636475,147.2813624,No Suburb,No Postcode,
ALDI,-38.3105508,144.3180793,No Suburb,No Postcode,14-18 Winki Way
Foodworks,-37.8868099,145.0222932,No Suburb,No Postcode,
IGA,-37.9547495,145.0255753,No Suburb,No Postcode,
ALDI,-38.3804013,142.5208813,No Suburb,No Postcode,154 Raglan Parade
Hyper Panda,-37.7620906,144.962826,Brunswick,3056,641 Sydney Road
Asian Taiwanese Grocery,-37.8202579,145.1261152,No Suburb,No Postcode,
Box Hill Asian Grocery Centre,-37.8201884,145.1235561,No Suburb,No Postcode,
Foodworks,-37.779459,145.5299851,Woori Yallock,3139,1585 Warburton Highway
Minh Vi,-37.7585801,144.7904118,No Suburb,No Postcode,
IGA,-38.1592302,145.1408228,No Suburb,No Postcode,
Foodworks,-34.1923069,142.1543979,No Suburb,No Postcode,
Fortune IGA,-37.6778323,145.0139671,No Suburb,No Postcode,275 High Street
Seoul Grocery,-37.8193264,145.1245932,No Suburb,No Postcode,
IGA,-37.9922245,145.1454752,No Suburb,No Postcode,
ALDI,-37.9925183,145.145781,No Suburb,No Postcode,466-468 Cheltenham Road
Woolworths,-37.7963605,144.940678,No Suburb,No Postcode,
IGA,-36.4944144,144.608814,No Suburb,No Postcode,
ALDI,-37.8305497,145.058844,No Suburb,No Postcode,15-25 Station Street
Woolworths Metro,-37.8630952,145.0101814,No Suburb,No Postcode,
Woolworths,-37.8210674,144.9500958,Docklands,3008,727 Collins Street
Coles,-37.8101212,144.9632193,No Suburb,No Postcode,211 La Trobe Street
Soon Lee Asian Grocery,-37.8162069,145.2256617,Ringwood,3134,103 Maroondah Highway
Golden Express,-37.8200723,144.9424484,No Suburb,No Postcode,
Vic Harbour Grocery,-37.819378,144.9446863,No Suburb,No Postcode,
The Cruelty Free Shop Vegan Supermarket,-37.798525,144.9791097,No Suburb,No Postcode,
IGA,-37.798545,145.0520745,No Suburb,No Postcode,655 High Street
ABC Supermarket,-37.7928056,145.0710362,No Suburb,No Postcode,68 Doncaster Road
The Source Bulk Foods,-37.8466976,144.991997,No Suburb,No Postcode,180 Commercial Road
Smith's Foodland,-37.1779691,143.2477495,No Suburb,No Postcode,
Woolworths,-37.8120887,144.9391271,No Suburb,No Postcode,Waterfront Way
Woolworths,-38.2460191,144.5402143,No Suburb,No Postcode,
Woolworths,-37.5938407,144.7129264,No Suburb,No Postcode,
Coles,-37.8848116,145.0068377,No Suburb,No Postcode,
Coles,-37.6000034,145.0952382,No Suburb,No Postcode,1435 Plenty Road
Woolworths,-37.8489987,145.1339749,No Suburb,No Postcode,
Woolworths Metro,-37.8002028,144.9949422,Abbotsford,3067,247-259 Johnston Street
Frederick's Local Grocery,-37.818229,144.9975854,No Suburb,No Postcode,
Creswick IGA,-37.422427,143.8953847,Creswick,3363,Albert Street
Carlton Supermarket,-37.7926419,144.9692514,No Suburb,No Postcode,570 Lygon Street
Harvest Wholefoods,-37.051055,146.088977,No Suburb,No Postcode,
Foodworks,-38.0506821,147.5773458,No Suburb,No Postcode,
East West Marketplace,-37.8126918,144.9394884,No Suburb,3008,94 Waterfront Way
Woolworths,-37.8340002,145.0773307,No Suburb,No Postcode,
Foodworks,-37.7544234,144.9155326,No Suburb,No Postcode,93-97 Rose Street
Coles,-37.7721229,144.9784681,Brunswick East,3057,127-137 Nicholson Street
Coles,-37.8339607,144.6510554,No Suburb,No Postcode,200 Hummingbird Boulevard
ALDI,-38.2370672,146.429453,No Suburb,No Postcode,
IGA,-37.9112167,144.7714232,No Suburb,No Postcode,
Woolworths,-37.9212208,145.1399271,No Suburb,No Postcode,
Reynolds IGA,-38.3376255,143.5987119,No Suburb,No Postcode,
NQR,-37.9004051,144.6633174,No Suburb,No Postcode,
Hu Hui Supermarket,-37.8494493,145.1340355,No Suburb,No Postcode,
ALDI,-37.7881705,145.1479083,No Suburb,No Postcode,3-11 Mitchell Street
Foodworks,-37.8240916,144.9620137,Southbank,3006,180 City Road
Coles,-37.8196048,145.1203412,No Suburb,No Postcode,
Woolworths,-38.1080715,145.2506305,No Suburb,No Postcode,
IGA Xpress,-37.6540759,145.5152908,No Suburb,No Postcode,
IGA Xpress,-37.725327,144.8811644,No Suburb,No Postcode,
Beleura Hill Shop,-38.2203185,145.0526141,No Suburb,No Postcode,
Yahweh,-37.764606,144.9218945,No Suburb,No Postcode,
Andrew Street Grocer,-37.8572274,145.1237031,No Suburb,No Postcode,
Wyndham Harbour Mini Mart,-37.965617,144.7066647,No Suburb,No Postcode,
IGA Point Cook,-37.8990016,144.7398241,No Suburb,No Postcode,
Orlando's,-37.7864014,145.1067413,No Suburb,No Postcode,
Coles,-38.2277511,144.3399292,No Suburb,No Postcode,
Grocer eez,-37.8699778,144.7314209,No Suburb,No Postcode,428 Old Geelong Road
Woolworths,-38.2307704,144.3722793,No Suburb,No Postcode,
Lee's Asian Grocery,-37.8459557,144.99234,No Suburb,No Postcode,
Paddlewheel,-37.8459263,144.99261,No Suburb,No Postcode,
Woolworths,-37.7221703,144.5708161,No Suburb,No Postcode,
Foodworks,-37.594469,144.7239361,No Suburb,No Postcode,
Coles,-37.5365138,144.9212675,No Suburb,No Postcode,270 Donnybrook Road
Foodworks,-38.1669176,145.1087814,No Suburb,No Postcode,
Richies IGA Fine Food and Wine Merchants,-37.7363922,144.9691528,No Suburb,No Postcode,
Boort IGA plus Liquor,-36.1166247,143.7233144,No Suburb,No Postcode,
Asian Grocery,-35.3373226,143.5587764,No Suburb,No Postcode,
IGA,-35.7325678,143.9200794,No Suburb,No Postcode,
Wing Chong Asian Supermarket,-37.8097393,144.9939322,Richmond,3121,283 Victoria Street
Foodworks,-38.6523731,146.2010399,No Suburb,No Postcode,
ALDI,-38.1519413,145.1673256,No Suburb,No Postcode,330 Cranbourne Road
Coles,-38.1517473,145.1667323,No Suburb,No Postcode,330 Cranbourne Road
Foodworks,-37.8854272,144.9879436,Elwood,3184,109 Ormond Road
Boundy's Supa IGA,-37.754983,144.8971477,No Suburb,No Postcode,
Pascoe Vale Mini Mart,-37.7307393,144.9387095,No Suburb,No Postcode,
IGA,-37.7200923,144.9405948,Pascoe Vale,3044,110-112 Kent Road
Coles,-37.7227961,144.6701494,No Suburb,No Postcode,
ALDI,-38.0942353,145.3333701,No Suburb,No Postcode,
ALDI,-37.8742285,144.6782325,No Suburb,No Postcode,
Daly's IGA,-38.2916088,142.3642103,Koroit,3282,150 Commercial Road
Aldi,-37.7151535,144.8842921,No Suburb,No Postcode,
ALDI,-37.6875338,144.8843357,No Suburb,No Postcode,8-34 Gladstone Park Drive
ALDI,-37.5946365,144.9143905,No Suburb,No Postcode,340 Craigieburn Road
Woolworths,-38.3576144,142.4451446,Dennington,3280,Raglan Parade
Ecopact Groceries,-37.8029415,144.8988455,Footscray,3011,208 Nicholson Street
IGA Coleraine,-37.5980069,141.6905031,No Suburb,No Postcode,
Coles,-37.7140271,144.6022542,No Suburb,No Postcode,211 Ferris Road
ALDI,-37.7987035,144.9836527,Fitzroy,3065,247 Johnston Street
Coles,-37.9028636,144.6590679,No Suburb,No Postcode,143-163 Watton Street
IGA,-37.8612753,144.6742753,No Suburb,No Postcode,2-6 Deloraine Drive
IGA Xpress,-35.1851015,143.3443623,No Suburb,No Postcode,
Hotham Supermarket,-36.9816356,147.1425355,No Suburb,No Postcode,
Unnamed Supermarket,-36.9920911,147.1487579,No Suburb,No Postcode,
Woolworths,-37.2858316,144.947924,No Suburb,No Postcode,
IGA,-37.7356853,145.2722906,Wonga Park,3115,70 Jumping Creek Road
Woolworths,-37.6848714,145.1356942,No Suburb,No Postcode,
IGA,-37.6746392,145.1588555,No Suburb,No Postcode,
Green Square IGA plus Liquor,-37.8109903,145.007512,No Suburb,No Postcode,
Universal Way Spices,-38.0914081,145.2553953,No Suburb,No Postcode,
Homeland Spices Grocery Store,-38.1084857,145.2511055,No Suburb,No Postcode,
Kuya JJ Asian Grocery,-38.1084035,145.2511267,No Suburb,No Postcode,
Casey Supermarket & Butcher,-38.1028395,145.2656435,No Suburb,No Postcode,
IGA,-38.1158311,145.2408454,No Suburb,No Postcode,
Apna Bazaar Indian Supermarket,-38.08485,145.2916296,No Suburb,No Postcode,
NQR,-38.110829,145.2821454,No Suburb,No Postcode,
Balwyn North Asian Supermarket,-37.7930241,145.0721899,No Suburb,No Postcode,
IGA,-37.3479587,144.7414332,No Suburb,No Postcode,
Coles,-34.2108266,142.1396072,Mildura,3500,832 Fifteenth Street
Friendly Grocer,-37.8305437,145.2438058,Heathmont,3135,163 Canterbury Road
IGA,-37.8277952,145.2471846,Heathmont,3135,116-120 Canterbury Road
ALDI,-37.7934467,145.2785468,Croydon,3136,5-15 Kent Avenue
IGA,-37.8211081,145.1419147,Blackburn,3130,11 Salisbury Avenue
IGA Express,-38.0889173,145.1284277,Seaford,3198,115 Railway Parade
Blake Family Grocers,-37.3400211,144.1451252,Daylesford,3460,1 Howe Street
Ruby Goose Foods,-37.3886374,144.3220107,Trentham,3458,40 High Street
Cheaper Buy Miles,-37.7749261,144.9606389,No Suburb,No Postcode,109 Sydney Road
Terra Madre,-37.7585768,144.963429,Brunswick,3056,775-781 Sydney Road
IGA,-37.7802739,145.4278501,Wandin North,3139,388 Warburton Highway
Coles,-37.7710664,145.2940313,Croydon North,3136,401-415 Maroondah Highway
Agora IGA Xpress,-37.7206367,145.0487718,No Suburb,No Postcode,
NQR,-38.1105634,144.3405441,No Suburb,No Postcode,
Hugsiam Asian Grocery,-38.1108869,144.342109,No Suburb,No Postcode,
Welshpool Supermarket,-38.6657911,146.4369242,No Suburb,No Postcode,
Wandong IGA,-37.3583061,145.0265944,No Suburb,No Postcode,
Spiral Tubes,-37.6559749,145.5061028,Healesville,3777,6-8 Ardill Street
Woolworths,-37.6161622,144.9153001,No Suburb,No Postcode,
NQR,-37.8175701,145.2239491,No Suburb,No Postcode,
St Albans Supermarket & Halal Meat,-37.7442247,144.7983251,No Suburb,No Postcode,
IGA,-37.8947805,144.6224075,No Suburb,No Postcode,
Woolworths,-38.2178096,145.0389791,No Suburb,No Postcode,
Coles,-37.8173906,144.9988683,Richmond,3171,240 Church Street
Overton Lea Indian Groceries,-37.6954331,144.7655507,No Suburb,No Postcode,2 Overton Lea Boulevard
Woolworths,-37.82581,144.9635577,No Suburb,No Postcode,
Foodworks,-37.7251379,145.3790863,Coldstream,3770,670-672 Maroondah Highway
Traralgon Asian Groceries,-38.1962636,146.5404186,Traralgon,3850,2 Seymour Street
ABC Supermarket,-37.8266695,145.2561383,Heathmont,3135,30 Canterbury Road
Korean World,-37.8206728,145.1240988,No Suburb,No Postcode,4 Ellingworth Parade
Cam Ngoc Asian Grocery,-37.7985575,144.8172299,No Suburb,No Postcode,
IGA,-37.7985236,144.8177624,No Suburb,No Postcode,
Om Sevvel Indian Store,-37.8161719,145.2258226,Ringwood,3134,107 Maroondah Highway
The South African Shop,-37.757048,145.1281259,Templestowe,3106,112 James Street
Naturally On High,-37.7597333,145.0002691,Thornbury,3071,697-699 High Street
IGA,-37.8120235,145.2516228,Ringwood East,3135,82-90 Railway Avenue
Chinland Asian Grocery,-37.812436,145.2499075,Ringwood East,3135,52 Railway Avenue
Foodworks,-37.6813787,145.0253087,No Suburb,3074,126 Alexander Avenue
Woolworths,-38.0437523,144.1705198,No Suburb,No Postcode,
IGA,-37.8112725,145.2704883,Croydon South,3136,13 The Mall
Karen Asian Grocery,-37.8117989,145.2700736,Croydon South,3136,37 The Mall
Eastfield Natural Foods,-37.811872,145.2700207,Croydon South,3136,39-41 The Mall
Shazza's Fruit & Veggies,-38.0453984,144.1708644,No Suburb,No Postcode,
Coles,-38.1497807,145.2897666,No Suburb,No Postcode,2-30S Hummingbird Drive
Fuji Mart,-37.8458546,144.9936826,South Yarra,3141,34 Elizabeth Street
Coles,-37.8760273,145.0376175,No Suburb,No Postcode,
Woolworths,-37.7761084,144.9285108,No Suburb,No Postcode,
ALDI,-37.8677301,145.2387933,No Suburb,No Postcode,425 Burwood Highway
Woolworths,-37.8677686,145.2379217,No Suburb,No Postcode,
IGA,-38.0516254,145.2873009,Narre Warren South,3805,245 Ormond Road
Woolworths,-37.974201,145.2052615,No Suburb,No Postcode,
Tiem Tap Hoa Asian Grocer,-37.7948464,144.9415679,No Suburb,No Postcode,
Woolworths,-37.6025697,145.1000383,No Suburb,No Postcode,
Woolworths Metro,-37.9738785,145.0163098,Black Rock,3193,39-41A Bluff Road
Woolworths,-37.7301438,144.7430619,No Suburb,No Postcode,
IGA,-37.7125819,144.7260158,No Suburb,No Postcode,
Gum Tree Good Food,-37.8388985,144.9902376,South Yarra,3141,114 Toorak Road
Organic Wholefoods,-37.7634376,144.9730183,No Suburb,No Postcode,467 Lygon Street
Foodworks,-37.7631481,144.9733325,No Suburb,3057,474 Lygon Street
Woolworths Metro,-37.8100673,144.9587799,No Suburb,No Postcode,
Woolworths,-38.3615342,144.8904717,No Suburb,No Postcode,
Friendly Grocer,-35.2631991,141.1840807,No Suburb,No Postcode,
IGA,-37.8278021,145.1943445,No Suburb,No Postcode,
Serendipity,-37.8430583,145.0543907,No Suburb,No Postcode,555 Burke Road
Coles,-37.8112818,145.1535054,No Suburb,No Postcode,66-104 Springfield Road
Woolworths,-37.8123394,145.1527346,No Suburb,No Postcode,
ALDI,-37.8112786,145.1520958,No Suburb,No Postcode,
IGA,-37.5596167,143.8852747,No Suburb,No Postcode,200 Victoria Street
Srini's Ceylon Madura,-37.8821544,145.1092559,No Suburb,No Postcode,422 Huntingdale Road
ALDI,-37.941289,145.1683577,No Suburb,No Postcode,754-768 Princes Highway
Strathfieldsaye Champions IGA,-36.8055696,144.3572257,No Suburb,3551,939 Wellington Road
Dockendorf Grocer,-37.9043418,144.9982759,No Suburb,No Postcode,12 Cochrane Street
Bayswater Fresh,-37.8428677,145.267082,No Suburb,No Postcode,
Mr. Dad Super Market,-37.8062642,144.9617649,No Suburb,No Postcode,
Tan Huang Asian Grocer,-37.8196347,145.1225176,No Suburb,No Postcode,
Persian Halal Butchery & Grocery,-37.7883914,145.149426,No Suburb,No Postcode,
Fawkner Express Grovery Store,-37.8385464,144.9769345,Melbourne,3004,431 St Kilda Road
IGA X-press,-37.8176845,144.9583477,No Suburb,No Postcode,
IGA - Greenvale,-37.6389263,144.8804683,No Suburb,No Postcode,
Coles,-37.8784912,145.0923339,Ashwood,No Postcode,695 Warrigal Road
Woolworths Metro,-37.8072174,144.943022,No Suburb,No Postcode,
Fawkner Mini mart,-37.7026596,144.9652668,No Suburb,No Postcode,
Hong Asian Grocery Shop,-35.9197065,145.6493799,Cobram,3644,39 High Street
Lockington Friendly Grocer + Liquor,-36.2714207,144.5356462,No Suburb,No Postcode,
Mahalaxmi Grocery and convenience store,-37.7419633,144.9652844,No Suburb,No Postcode,
Woolworths,-37.8318024,144.8831375,No Suburb,No Postcode,
Lake Bolac Licensed Supermarket,-37.7123253,142.8392691,No Suburb,No Postcode,
ALDI,-38.3471445,141.6021559,No Suburb,No Postcode,29 Henty Street
Huntly IGA X-press,-36.6657147,144.3317152,No Suburb,No Postcode,
Unnamed Supermarket,-36.3122009,145.0499305,No Suburb,No Postcode,
NQR,-37.7847239,144.771428,No Suburb,No Postcode,
Heidelberg Pickles And Pappads,-37.7565602,145.0681732,No Suburb,No Postcode,
Coles,-38.0949019,145.3623668,No Suburb,No Postcode,
Foodworks,-37.6501579,143.8853867,No Suburb,No Postcode,
Foodworks,-37.9360111,145.0612301,East Bentleigh,3165,293 Chesterville Road
Big Watermelon,-37.8748714,145.2053244,No Suburb,No Postcode,
Claremont Supermarket,-37.8383107,144.9935719,No Suburb,No Postcode,3 - 7 Claremont Street
Montrose IGA,-37.8106287,145.3431529,No Suburb,No Postcode,
Bivihome,-37.7662487,145.0299719,No Suburb,3071,351 Darebin Road
ALDI,-37.9772167,145.2586075,No Suburb,No Postcode,
Coles,-37.8386433,144.9417288,No Suburb,No Postcode,
Coles,-37.7752157,144.8866386,No Suburb,No Postcode,
Coles,-37.5733957,144.8994405,No Suburb,No Postcode,
Bentleigh Supermarket,-37.917629,145.0342877,No Suburb,No Postcode,
IGA,-37.8857274,145.0586068,Carnegie,3163,18-30 Woorayl Street
Coles,-37.816873,144.8810662,No Suburb,No Postcode,1-3 High Street
IGA,-37.7191287,144.9071953,No Suburb,No Postcode,
Coles,-37.9112361,144.6145199,No Suburb,No Postcode,
Sri Kumaran Stores,-38.0941151,145.3329963,No Suburb,No Postcode,
NQR,-37.8183945,145.1204943,No Suburb,No Postcode,
Foodworks,-37.883565,144.689379,Hoppers Crossing,3029,70 Warringa Crescent
Foodworks,-38.197436,146.5237592,No Suburb,No Postcode,
Foodworks,-37.8204789,145.1052753,No Suburb,No Postcode,
Morgan's IGA,-37.7921897,144.7895016,No Suburb,No Postcode,
Pantre,-37.810497,144.9621678,No Suburb,No Postcode,
Hometown Grocer,-37.8103363,144.963081,No Suburb,No Postcode,
Woolworths,-37.7381316,144.8928873,No Suburb,No Postcode,
Coles,-37.7052592,144.9167752,No Suburb,No Postcode,
IGA,-37.7071083,144.9186123,No Suburb,No Postcode,
IGA,-37.8000464,144.9653246,No Suburb,No Postcode,
